$$SOE
2460154.500000000, A.D. 2023-Jul-29 00:00:00.0000, 6.207646292793129E+07, 3.386918198680266E+08, -2.389327316420217E+07,
2460161.500000000, A.D. 2023-Aug-05 00:00:00.0000, 5.122672694367543E+07, 3.429097679263574E+08, -2.388700628043067E+07,
2460168.500000000, A.D. 2023-Aug-12 00:00:00.0000, 4.031776291251741E+07, 3.467311594697912E+08, -2.385311119896357E+07,
2460175.500000000, A.D. 2023-Aug-19 00:00:00.0000, 2.936311360468680E+07, 3.501595772775283E+08, -2.379217773409145E+07,
2460182.500000000, A.D. 2023-Aug-26 00:00:00.0000, 1.837584210872480E+07, 3.531988942226989E+08, -2.370480228020523E+07,
2460189.500000000, A.D. 2023-Sep-02 00:00:00.0000, 7.368545271428848E+06, 3.558532427129554E+08, -2.359158615071900E+07,
2460196.500000000, A.D. 2023-Sep-09 00:00:00.0000, -3.646632188931998E+06, 3.581269865499202E+08, -2.345313411201379E+07,
2460203.500000000, A.D. 2023-Sep-16 00:00:00.0000, -1.465798291668639E+07, 3.600246950019221E+08, -2.329005311784142E+07,
2460210.500000000, A.D. 2023-Sep-23 00:00:00.0000, -2.565422124758690E+07, 3.615511192309335E+08, -2.310295124498729E+07,
2460217.500000000, A.D. 2023-Sep-30 00:00:00.0000, -3.662446711256618E+07, 3.627111721238576E+08, -2.289243668905951E+07,
2460224.500000000, A.D. 2023-Oct-07 00:00:00.0000, -4.755823198634712E+07, 3.635099108475749E+08, -2.265911663709797E+07,
2460231.500000000, A.D. 2023-Oct-14 00:00:00.0000, -5.844540594078096E+07, 3.639525186732146E+08, -2.240359637027505E+07,
2460238.500000000, A.D. 2023-Oct-21 00:00:00.0000, -6.927624266517271E+07, 3.640442875446807E+08, -2.212647875066091E+07,
2460245.500000000, A.D. 2023-Oct-28 00:00:00.0000, -8.004134394768678E+07, 3.637906035377134E+08, -2.182836376826385E+07,
2460252.500000000, A.D. 2023-Nov-04 00:00:00.0000, -9.073164492088360E+07, 3.631969343237654E+08, -2.150984808761884E+07,
2460259.500000000, A.D. 2023-Nov-11 00:00:00.0000, -1.013383999373822E+08, 3.622688179263422E+08, -2.117152465002275E+07,
2460266.500000000, A.D. 2023-Nov-18 00:00:00.0000, -1.118531688911944E+08, 3.610118525981590E+08, -2.081398234796982E+07,
2460273.500000000, A.D. 2023-Nov-25 00:00:00.0000, -1.222678039414385E+08, 3.594316877398919E+08, -2.043780576824567E+07,
2460280.500000000, A.D. 2023-Dec-02 00:00:00.0000, -1.325744366365548E+08, 3.575340157564094E+08, -2.004357499985972E+07,
2460287.500000000, A.D. 2023-Dec-09 00:00:00.0000, -1.427654653829960E+08, 3.553245647101908E+08, -1.963186551301542E+07,
2460294.500000000, A.D. 2023-Dec-16 00:00:00.0000, -1.528335429854313E+08, 3.528090917130692E+08, -1.920324813000704E+07,
2460301.500000000, A.D. 2023-Dec-23 00:00:00.0000, -1.627715639173421E+08, 3.499933776784413E+08, -1.875828905998227E+07,
2460308.500000000, A.D. 2023-Dec-30 00:00:00.0000, -1.725726526643152E+08, 3.468832244228940E+08, -1.829754978547390E+07,
2460315.500000000, A.D. 2024-Jan-06 00:00:00.0000, -1.822301549076666E+08, 3.434844516990224E+08, -1.782158682761675E+07,
2460322.500000000, A.D. 2024-Jan-13 00:00:00.0000, -1.917376283669325E+08, 3.398028922907914E+08, -1.733095182402050E+07,
2460329.500000000, A.D. 2024-Jan-20 00:00:00.0000, -2.010888320746767E+08, 3.358443881998356E+08, -1.682619177556953E+07,
2460336.500000000, A.D. 2024-Jan-27 00:00:00.0000, -2.102777161075190E+08, 3.316147885295412E+08, -1.630784922053675E+07,
2460343.500000000, A.D. 2024-Feb-03 00:00:00.0000, -2.192984121928560E+08, 3.271199480739212E+08, -1.577646237174091E+07,
2460350.500000000, A.D. 2024-Feb-10 00:00:00.0000, -2.281452249061934E+08, 3.223657262780468E+08, -1.523256526355183E+07,
2460357.500000000, A.D. 2024-Feb-17 00:00:00.0000, -2.368126233137877E+08, 3.173579865413442E+08, -1.467668791894840E+07,
2460364.500000000, A.D. 2024-Feb-24 00:00:00.0000, -2.452952330176817E+08, 3.121025958472630E+08, -1.410935653725414E+07,
2460371.500000000, A.D. 2024-Mar-02 00:00:00.0000, -2.535878285656065E+08, 3.066054246595699E+08, -1.353109370660987E+07,
2460378.500000000, A.D. 2024-Mar-09 00:00:00.0000, -2.616853260774753E+08, 3.008723469979073E+08, -1.294241865779985E+07,
2460385.500000000, A.D. 2024-Mar-16 00:00:00.0000, -2.695827756829312E+08, 2.949092408670653E+08, -1.234384757829662E+07,
2460392.500000000, A.D. 2024-Mar-23 00:00:00.0000, -2.772753538638647E+08, 2.887219901277591E+08, -1.173589388522640E+07,
2460399.500000000, A.D. 2024-Mar-30 00:00:00.0000, -2.847583579351086E+08, 2.823164877642899E+08, -1.111906825313544E+07,
2460406.500000000, A.D. 2024-Apr-06 00:00:00.0000, -2.920272023971395E+08, 2.756986371666877E+08, -1.049387869452955E+07,
2460413.500000000, A.D. 2024-Apr-13 00:00:00.0000, -2.990774135966974E+08, 2.688743522453773E+08, -9.860830948981941E+06,
2460420.500000000, A.D. 2024-Apr-20 00:00:00.0000, -3.059046236409342E+08, 2.618495590377265E+08, -9.220428873748049E+06,
2460427.500000000, A.D. 2024-Apr-27 00:00:00.0000, -3.125045650779197E+08, 2.546301982349493E+08, -8.573174742516741E+06,
2460434.500000000, A.D. 2024-May-04 00:00:00.0000, -3.188730662486396E+08, 2.472222279170442E+08, -7.919569517392054E+06,
2460441.500000000, A.D. 2024-May-11 00:00:00.0000, -3.250060470653492E+08, 2.396316263845975E+08, -7.260113123600587E+06,
2460448.500000000, A.D. 2024-May-18 00:00:00.0000, -3.308995151289212E+08, 2.318643951008348E+08, -6.595304732069701E+06,
2460455.500000000, A.D. 2024-May-25 00:00:00.0000, -3.365495621561818E+08, 2.239265617300201E+08, -5.925643052194536E+06,
2460462.500000000, A.D. 2024-Jun-01 00:00:00.0000, -3.419523606539519E+08, 2.158241832092001E+08, -5.251626644472092E+06,
2460469.500000000, A.D. 2024-Jun-08 00:00:00.0000, -3.471041605907645E+08, 2.075633488256577E+08, -4.573754276971728E+06,
2460476.500000000, A.D. 2024-Jun-15 00:00:00.0000, -3.520012856649317E+08, 1.991501838410085E+08, -3.892525317238510E+06,
2460483.500000000, A.D. 2024-Jun-22 00:00:00.0000, -3.566401301743244E+08, 1.905908548334158E+08, -3.208439971004471E+06,
2460490.500000000, A.D. 2024-Jun-29 00:00:00.0000, -3.610171586128844E+08, 1.818915749357623E+08, -2.521999321830884E+06,
2460497.500000000, A.D. 2024-Jul-06 00:00:00.0000, -3.651289053510962E+08, 1.730586065002322E+08, -1.833705616018519E+06,
2460504.500000000, A.D. 2024-Jul-13 00:00:00.0000, -3.689719724496835E+08, 1.640982640123718E+08, -1.144062740031354E+06,
2460511.500000000, A.D. 2024-Jul-20 00:00:00.0000, -3.725430275949413E+08, 1.550169184010010E+08, -4.535766141081974E+05,
2460518.500000000, A.D. 2024-Jul-27 00:00:00.0000, -3.758388028169289E+08, 1.458210017859321E+08, 2.372444796322584E+05,
2460525.500000000, A.D. 2024-Aug-03 00:00:00.0000, -3.788560937200153E+08, 1.365170122898898E+08, 9.278895791911706E+05,
2460532.500000000, A.D. 2024-Aug-10 00:00:00.0000, -3.815917590626309E+08, 1.271115189082912E+08, 1.617844719621703E+06,
2460539.500000000, A.D. 2024-Aug-17 00:00:00.0000, -3.840427206460242E+08, 1.176111664552216E+08, 2.306592602454141E+06,
2460546.500000000, A.D. 2024-Aug-24 00:00:00.0000, -3.862059634966624E+08, 1.080226805615286E+08, 2.993612253023088E+06,
2460553.500000000, A.D. 2024-Aug-31 00:00:00.0000, -3.880785362421327E+08, 9.835287266477576E+07, 3.678378649734572E+06,
2460560.500000000, A.D. 2024-Sep-07 00:00:00.0000, -3.896575513305448E+08, 8.860864512062736E+07, 4.360362301894773E+06,
2460567.500000000, A.D. 2024-Sep-14 00:00:00.0000, -3.909401850226230E+08, 7.879699743431319E+07, 5.039028849741418E+06,
2460574.500000000, A.D. 2024-Sep-21 00:00:00.0000, -3.919236792007203E+08, 6.892503402549481E+07, 5.713838906668071E+06,
2460581.500000000, A.D. 2024-Sep-28 00:00:00.0000, -3.926053455015712E+08, 5.899997029906327E+07, 6.384247924788453E+06,
2460588.500000000, A.D. 2024-Oct-05 00:00:00.0000, -3.929825681226145E+08, 4.902913702504124E+07, 7.049705747991167E+06,
2460595.500000000, A.D. 2024-Oct-12 00:00:00.0000, -3.930528056792135E+08, 3.901998600641977E+07, 7.709656130074950E+06,
2460602.500000000, A.D. 2024-Oct-19 00:00:00.0000, -3.928135938851554E+08, 2.898009675881982E+07, 8.363536357135054E+06,
2460609.500000000, A.D. 2024-Oct-26 00:00:00.0000, -3.922625491166913E+08, 1.891718339592056E+07, 9.010776912317855E+06,
2460616.500000000, A.D. 2024-Nov-02 00:00:00.0000, -3.913973726322100E+08, 8.839101568466788E+06, 9.650801148227403E+06,
2460623.500000000, A.D. 2024-Nov-09 00:00:00.0000, -3.902158553810878E+08, -1.246144527821227E+06, 1.028302496112701E+07,
2460630.500000000, A.D. 2024-Nov-16 00:00:00.0000, -3.887158834081042E+08, -1.133039508284087E+07, 1.090685646606840E+07,
2460637.500000000, A.D. 2024-Nov-23 00:00:00.0000, -3.868954438416079E+08, -2.140532760096693E+07, 1.152169566623730E+07,
2460644.500000000, A.D. 2024-Nov-30 00:00:00.0000, -3.847526312950718E+08, -3.146244988297028E+07, 1.212693409583339E+07,
2460651.500000000, A.D. 2024-Dec-07 00:00:00.0000, -3.822856543030435E+08, -4.149309265511883E+07, 1.272195443457040E+07,
2460658.500000000, A.D. 2024-Dec-14 00:00:00.0000, -3.794928425228028E+08, -5.148840063965239E+07, 1.330613025941976E+07,
2460665.500000000, A.D. 2024-Dec-21 00:00:00.0000, -3.763726570668340E+08, -6.143932333033643E+07, 1.387882604750681E+07,
2460672.500000000, A.D. 2024-Dec-28 00:00:00.0000, -3.729237020464809E+08, -7.133660846731929E+07, 1.443939700983197E+07,
2460679.500000000, A.D. 2025-Jan-04 00:00:00.0000, -3.691447347843877E+08, -8.117079586368927E+07, 1.498718871563792E+07,
2460686.500000000, A.D. 2025-Jan-11 00:00:00.0000, -3.650346765696185E+08, -9.093220995742454E+07, 1.552153681437332E+07,
2460693.500000000, A.D. 2025-Jan-18 00:00:00.0000, -3.605926249279212E+08, -1.006109520503338E+08, 1.604176686859341E+07,
2460700.500000000, A.D. 2025-Jan-25 00:00:00.0000, -3.558178672259976E+08, -1.101968927590851E+08, 1.654719424147188E+07,
2460707.500000000, A.D. 2025-Feb-01 00:00:00.0000, -3.507098954866198E+08, -1.196796647648210E+08, 1.703712402470092E+07,
2460714.500000000, A.D. 2025-Feb-08 00:00:00.0000, -3.452684224236635E+08, -1.290486559055339E+08, 1.751085100935904E+07,
2460721.500000000, A.D. 2025-Feb-15 00:00:00.0000, -3.394933987368726E+08, -1.382930027047930E+08, 1.796765970238563E+07,
$$EOE